start=new Date('2023-03-07T00:00:00.000Z').valueOf();
sats=[{"ECCENTRICITY":"0.00017000","REF_FRAME":"TEME","INCLINATION":"53.0538","MEAN_MOTION_DOT":"0.00027280","OBJECT_TYPE":"PAYLOAD","EPHEMERIS_TYPE":"0","SITE":"AFETR","DECAY_DATE":null,"ARG_OF_PERICENTER":"83.3136","MEAN_MOTION":"15.06488579","EPOCH":"2023-03-06T18:17:13.629984","MEAN_ELEMENT_THEORY":"SGP4","TLE_LINE1":"1 47876U 21021S   23065.76196331  .00027280  00000-0  18388-2 0  9999","MEAN_MOTION_DDOT":"0.0000000000000","CLASSIFICATION_TYPE":"U","LAUNCH_DATE":"2021-03-14","PERIAPSIS":"545.765","RA_OF_ASC_NODE":"164.8962","REV_AT_EPOCH":"11056","COUNTRY_CODE":"US","ELEMENT_SET_NO":"999","OBJECT_NAME":"STARLINK-2332","FILE":"3853141","SEMIMAJOR_AXIS":"6925.077","NORAD_CAT_ID":"47876","APOAPSIS":"548.119","CENTER_NAME":"EARTH","MEAN_ANOMALY":"276.8046","GP_ID":"227625354","TIME_SYSTEM":"UTC","RCS_SIZE":"LARGE","TLE_LINE2":"2 47876  53.0538 164.8962 0001700  83.3136 276.8046 15.06488579110565","PERIOD":"95.587","OBJECT_ID":"2021-021S","BSTAR":"0.00183880000000"},{"NORAD_CAT_ID":"47877","APOAPSIS":"548.144","CENTER_NAME":"EARTH","FILE":"3853141","SEMIMAJOR_AXIS":"6925.303","GP_ID":"227625604","MEAN_ANOMALY":"251.1900","TLE_LINE2":"2 47877  53.0530 166.0206 0001410 108.9242 251.1900 15.06414872110518","PERIOD":"95.591","TIME_SYSTEM":"UTC","RCS_SIZE":"LARGE","BSTAR":"0.00068390000000","OBJECT_ID":"2021-021T","RA_OF_ASC_NODE":"166.0206","COUNTRY_CODE":"US","REV_AT_EPOCH":"11051","ELEMENT_SET_NO":"999","OBJECT_NAME":"STARLINK-2333","LAUNCH_DATE":"2021-03-14","CLASSIFICATION_TYPE":"U","MEAN_MOTION_DDOT":"0.0000000000000","PERIAPSIS":"546.192","REF_FRAME":"TEME","ECCENTRICITY":"0.00014100","EPHEMERIS_TYPE":"0","MEAN_MOTION_DOT":"0.00009924","INCLINATION":"53.0530","OBJECT_TYPE":"PAYLOAD","ARG_OF_PERICENTER":"108.9242","SITE":"AFETR","DECAY_DATE":null,"TLE_LINE1":"1 47877U 21021T   23065.51131792  .00009924  00000-0  68390-3 0  9997","EPOCH":"2023-03-06T12:16:17.868288","MEAN_MOTION":"15.06414872","MEAN_ELEMENT_THEORY":"SGP4"},{"BSTAR":"0.00023854000000","OBJECT_ID":"2021-021U","TLE_LINE2":"2 47878  53.0534 165.9733 0001739  82.0996 278.0190 15.06407233110318","PERIOD":"95.592","TIME_SYSTEM":"UTC","RCS_SIZE":"LARGE","GP_ID":"227625855","MEAN_ANOMALY":"278.0190","NORAD_CAT_ID":"47878","APOAPSIS":"548.396","CENTER_NAME":"EARTH","FILE":"3853141","SEMIMAJOR_AXIS":"6925.326","OBJECT_NAME":"STARLINK-2335","ELEMENT_SET_NO":"999","COUNTRY_CODE":"US","REV_AT_EPOCH":"11031","RA_OF_ASC_NODE":"165.9733","PERIAPSIS":"545.987","LAUNCH_DATE":"2021-03-14","CLASSIFICATION_TYPE":"U","MEAN_MOTION_DDOT":"0.0000000000000","TLE_LINE1":"1 47878U 21021U   23065.52237853  .00003274  00000-0  23854-3 0  9992","MEAN_MOTION":"15.06407233","EPOCH":"2023-03-06T12:32:13.504992","MEAN_ELEMENT_THEORY":"SGP4","ARG_OF_PERICENTER":"82.0996","DECAY_DATE":null,"SITE":"AFETR","EPHEMERIS_TYPE":"0","INCLINATION":"53.0534","MEAN_MOTION_DOT":"0.00003274","OBJECT_TYPE":"PAYLOAD","ECCENTRICITY":"0.00017390","REF_FRAME":"TEME"},{"PERIAPSIS":"546.159","LAUNCH_DATE":"2021-03-14","CLASSIFICATION_TYPE":"U","MEAN_MOTION_DDOT":"0.0000000000000","ARG_OF_PERICENTER":"71.3521","SITE":"AFETR","DECAY_DATE":null,"TLE_LINE1":"1 47879U 21021V   23065.71818991  .00018831  00000-0  12786-2 0  9998","MEAN_ELEMENT_THEORY":"SGP4","MEAN_MOTION":"15.06432330","EPOCH":"2023-03-06T17:14:11.608224","ECCENTRICITY":"0.00013800","REF_FRAME":"TEME","EPHEMERIS_TYPE":"0","MEAN_MOTION_DOT":"0.00018831","INCLINATION":"53.0534","OBJECT_TYPE":"PAYLOAD","TLE_LINE2":"2 47879  53.0534 180.0913 0001380  71.3521 288.7618 15.06432330110515","PERIOD":"95.590","TIME_SYSTEM":"UTC","RCS_SIZE":"LARGE","BSTAR":"0.00127860000000","OBJECT_ID":"2021-021V","NORAD_CAT_ID":"47879","APOAPSIS":"548.070","CENTER_NAME":"EARTH","FILE":"3853141","SEMIMAJOR_AXIS":"6925.249","GP_ID":"227626605","MEAN_ANOMALY":"288.7618","ELEMENT_SET_NO":"999","OBJECT_NAME":"STARLINK-2336","RA_OF_ASC_NODE":"180.0913","COUNTRY_CODE":"US","REV_AT_EPOCH":"11051"},{"EPHEMERIS_TYPE":"0","MEAN_MOTION_DOT":"0.00007219","INCLINATION":"53.0522","OBJECT_TYPE":"PAYLOAD","ECCENTRICITY":"0.00009360","REF_FRAME":"TEME","TLE_LINE1":"1 47880U 21021W   23065.62465423  .00007219  00000-0  50281-3 0  9999","MEAN_MOTION":"15.06416185","MEAN_ELEMENT_THEORY":"SGP4","EPOCH":"2023-03-06T14:59:30.125472","ARG_OF_PERICENTER":"127.4435","SITE":"AFETR","DECAY_DATE":null,"LAUNCH_DATE":"2021-03-14","CLASSIFICATION_TYPE":"U","MEAN_MOTION_DDOT":"0.0000000000000","PERIAPSIS":"546.516","REV_AT_EPOCH":"11039","COUNTRY_CODE":"US","RA_OF_ASC_NODE":"175.5111","OBJECT_NAME":"STARLINK-2337","ELEMENT_SET_NO":"999","GP_ID":"227624855","MEAN_ANOMALY":"232.6639","NORAD_CAT_ID":"47880","APOAPSIS":"547.812","CENTER_NAME":"EARTH","FILE":"3853141","SEMIMAJOR_AXIS":"6925.299","BSTAR":"0.00050281000000","OBJECT_ID":"2021-021W","TLE_LINE2":"2 47880  53.0522 175.5111 0000936 127.4435 232.6639 15.06416185110393","PERIOD":"95.591","TIME_SYSTEM":"UTC","RCS_SIZE":"LARGE"},{"PERIAPSIS":"546.230","CLASSIFICATION_TYPE":"U","LAUNCH_DATE":"2021-03-14","MEAN_MOTION_DDOT":"0.0000000000000","ARG_OF_PERICENTER":"73.7407","DECAY_DATE":null,"SITE":"AFETR","TLE_LINE1":"1 47881U 21021X   23065.78315079  .00026090  00000-0  17621-2 0  9996","MEAN_MOTION":"15.06439475","EPOCH":"2023-03-06T18:47:44.228256","MEAN_ELEMENT_THEORY":"SGP4","ECCENTRICITY":"0.00012460","REF_FRAME":"TEME","EPHEMERIS_TYPE":"0","MEAN_MOTION_DOT":"0.00026090","INCLINATION":"53.0557","OBJECT_TYPE":"PAYLOAD","TLE_LINE2":"2 47881  53.0557 174.7949 0001246  73.7407 286.3719 15.06439475110380","PERIOD":"95.590","TIME_SYSTEM":"UTC","RCS_SIZE":"LARGE","BSTAR":"0.00176210000000","OBJECT_ID":"2021-021X","NORAD_CAT_ID":"47881","CENTER_NAME":"EARTH","APOAPSIS":"547.955","FILE":"3853141","SEMIMAJOR_AXIS":"6925.228","GP_ID":"227625105","MEAN_ANOMALY":"286.3719","ELEMENT_SET_NO":"999","OBJECT_NAME":"STARLINK-2339","RA_OF_ASC_NODE":"174.7949","REV_AT_EPOCH":"11038","COUNTRY_CODE":"US"},{"REV_AT_EPOCH":"11072","COUNTRY_CODE":"US","RA_OF_ASC_NODE":"164.9124","OBJECT_NAME":"STARLINK-2340","ELEMENT_SET_NO":"999","GP_ID":"227626355","MEAN_ANOMALY":"298.9106","NORAD_CAT_ID":"47882","APOAPSIS":"548.166","CENTER_NAME":"EARTH","FILE":"3853141","SEMIMAJOR_AXIS":"6925.176","BSTAR":"0.00339970000000","OBJECT_ID":"2021-021Y","TLE_LINE2":"2 47882  53.0532 164.9124 0001625  61.2046 298.9106 15.06456274110725","PERIOD":"95.589","TIME_SYSTEM":"UTC","RCS_SIZE":"LARGE","EPHEMERIS_TYPE":"0","MEAN_MOTION_DOT":"0.00050801","INCLINATION":"53.0532","OBJECT_TYPE":"PAYLOAD","REF_FRAME":"TEME","ECCENTRICITY":"0.00016250","TLE_LINE1":"1 47882U 21021Y   23065.75826647  .00050801  00000-0  33997-2 0  9993","MEAN_ELEMENT_THEORY":"SGP4","MEAN_MOTION":"15.06456274","EPOCH":"2023-03-06T18:11:54.223008","ARG_OF_PERICENTER":"61.2046","SITE":"AFETR","DECAY_DATE":null,"LAUNCH_DATE":"2021-03-14","CLASSIFICATION_TYPE":"U","MEAN_MOTION_DDOT":"0.0000000000000","PERIAPSIS":"545.916"},{"LAUNCH_DATE":"2021-03-14","CLASSIFICATION_TYPE":"U","MEAN_MOTION_DDOT":"0.0000000000000","PERIAPSIS":"546.269","ECCENTRICITY":"0.00011650","REF_FRAME":"TEME","EPHEMERIS_TYPE":"0","OBJECT_TYPE":"PAYLOAD","MEAN_MOTION_DOT":"0.00043910","INCLINATION":"53.0520","ARG_OF_PERICENTER":"71.5684","DECAY_DATE":null,"SITE":"AFETR","TLE_LINE1":"1 47883U 21021Z   23065.79651067  .00043910  00000-0  29449-2 0  9990","MEAN_MOTION":"15.06444912","EPOCH":"2023-03-06T19:06:58.521888","MEAN_ELEMENT_THEORY":"SGP4","CENTER_NAME":"EARTH","APOAPSIS":"547.883","NORAD_CAT_ID":"47883","SEMIMAJOR_AXIS":"6925.211","FILE":"3853141","GP_ID":"227626106","MEAN_ANOMALY":"288.5431","PERIOD":"95.589","TLE_LINE2":"2 47883  53.0520 169.7424 0001165  71.5684 288.5431 15.06444912110665","RCS_SIZE":"LARGE","TIME_SYSTEM":"UTC","BSTAR":"0.00294490000000","OBJECT_ID":"2021-021Z","RA_OF_ASC_NODE":"169.7424","REV_AT_EPOCH":"11066","COUNTRY_CODE":"US","ELEMENT_SET_NO":"999","OBJECT_NAME":"STARLINK-2342"},{"TIME_SYSTEM":"UTC","RCS_SIZE":"LARGE","TLE_LINE2":"2 47884  53.0527 176.0078 0001688  97.5341 262.5840 15.06412295110370","PERIOD":"95.591","OBJECT_ID":"2021-021AA","BSTAR":"0.00064530000000","FILE":"3853141","SEMIMAJOR_AXIS":"6925.311","NORAD_CAT_ID":"47884","CENTER_NAME":"EARTH","APOAPSIS":"548.345","MEAN_ANOMALY":"262.5840","GP_ID":"227625355","ELEMENT_SET_NO":"999","OBJECT_NAME":"STARLINK-2343","RA_OF_ASC_NODE":"176.0078","COUNTRY_CODE":"US","REV_AT_EPOCH":"11037","PERIAPSIS":"546.007","MEAN_MOTION_DDOT":"0.0000000000000","LAUNCH_DATE":"2021-03-14","CLASSIFICATION_TYPE":"U","DECAY_DATE":null,"SITE":"AFETR","ARG_OF_PERICENTER":"97.5341","MEAN_MOTION":"15.06412295","EPOCH":"2023-03-06T12:20:16.919808","MEAN_ELEMENT_THEORY":"SGP4","TLE_LINE1":"1 47884U 21021AA  23065.51408472  .00009346  00000-0  64530-3 0  9997","ECCENTRICITY":"0.00016880","REF_FRAME":"TEME","MEAN_MOTION_DOT":"0.00009346","INCLINATION":"53.0527","OBJECT_TYPE":"PAYLOAD","EPHEMERIS_TYPE":"0"},{"OBJECT_NAME":"STARLINK-2344","ELEMENT_SET_NO":"999","REV_AT_EPOCH":"11049","COUNTRY_CODE":"US","RA_OF_ASC_NODE":"180.1417","BSTAR":"0.00183880000000","OBJECT_ID":"2021-021AB","TLE_LINE2":"2 47885  53.0518 180.1417 0001749  82.6697 277.4490 15.06426482110493","PERIOD":"95.590","TIME_SYSTEM":"UTC","RCS_SIZE":"LARGE","GP_ID":"227625605","MEAN_ANOMALY":"277.4490","NORAD_CAT_ID":"47885","CENTER_NAME":"EARTH","APOAPSIS":"548.344","FILE":"3853141","SEMIMAJOR_AXIS":"6925.267","TLE_LINE1":"1 47885U 21021AB  23065.70713295  .00027233  00000-0  18388-2 0  9995","MEAN_MOTION":"15.06426482","EPOCH":"2023-03-06T16:58:16.286880","MEAN_ELEMENT_THEORY":"SGP4","ARG_OF_PERICENTER":"82.6697","DECAY_DATE":null,"SITE":"AFETR","EPHEMERIS_TYPE":"0","INCLINATION":"53.0518","MEAN_MOTION_DOT":"0.00027233","OBJECT_TYPE":"PAYLOAD","ECCENTRICITY":"0.00017490","REF_FRAME":"TEME","PERIAPSIS":"545.921","CLASSIFICATION_TYPE":"U","LAUNCH_DATE":"2021-03-14","MEAN_MOTION_DDOT":"0.0000000000000"}];
